[{"OBJECT_NAME":"STARLINK-32816","OBJECT_ID":"2025-034X","EPOCH":"2026-03-09T21:08:36.542400","MEAN_MOTION":15.3020265,"ECCENTRICITY":8.564e-5,"INCLINATION":53.1603,"RA_OF_ASC_NODE":270.1885,"ARG_OF_PERICENTER":94.5988,"MEAN_ANOMALY":265.511,"EPHEMERIS_TYPE":0,"CLASSIFICATION_TYPE":"U","NORAD_CAT_ID":63050,"ELEMENT_SET_NO":999,"REV_AT_EPOCH":5893,"BSTAR":0.0010233222,"MEAN_MOTION_DOT":0.00030074,"MEAN_MOTION_DDOT":0},{"OBJECT_NAME":"COSMOS 1975","OBJECT_ID":"1988-093A","EPOCH":"2026-03-09T14:15:08.474112","MEAN_MOTION":15.28069249,"ECCENTRICITY":0.0012117,"INCLINATION":82.5181,"RA_OF_ASC_NODE":117.7814,"ARG_OF_PERICENTER":163.8427,"MEAN_ANOMALY":196.3201,"EPHEMERIS_TYPE":0,"CLASSIFICATION_TYPE":"U","NORAD_CAT_ID":19573,"ELEMENT_SET_NO":999,"REV_AT_EPOCH":1939,"BSTAR":0.0002787,"MEAN_MOTION_DOT":7.676e-5,"MEAN_MOTION_DDOT":0}]
